IRIDIUM 33 DEB          
1 33960U 97051BV  26066.49308353  .00040661  00000+0  41758-2 0  9991
2 33960  86.2496 249.3828 0002591 119.4220 296.4759 14.90191870901271
IRIDIUM 33 DEB          
1 33966U 97051CB  26066.59108887  .00003312  00000+0  84983-3 0  9998
2 33966  86.3971   9.5982 0005243 290.5725 194.7432 14.50034815896712
IRIDIUM 33 DEB          
1 34071U 97051CE  26066.48995664  .00003334  00000+0  85613-3 0  9996
2 34071  86.3497 340.9934 0007012 168.5956 191.5409 14.49990542895622
IRIDIUM 33 DEB          
1 34077U 97051CL  26066.30392582  .00012970  00000+0  23295-2 0  9996
2 34077  86.3891  14.2000 0012222  92.4036  27.6553 14.66561812895716
IRIDIUM 33 DEB          
1 34079U 97051CN  26066.20468802  .00017533  00000+0  19530-2 0  9993
2 34079  86.3784 330.1567 0009526  53.2474  69.1833 14.86965265902310
IRIDIUM 33 DEB          
1 34088U 97051CX  26066.27698264  .00057413  00000+0  48482-2 0  9996
2 34088  86.3863 351.7021 0001655  73.4198  46.5186 14.97844315900046
IRIDIUM 33 DEB          
1 34091U 97051DA  26066.31145668  .00074552  00000+0  76697-2 0  9992
2 34091  86.3453  27.8729 0032021   7.4239 352.7454 14.89565735891221
IRIDIUM 33 DEB          
1 34097U 97051DG  26066.44180654  .00004742  00000+0  15768-2 0  9992
2 34097  86.2010 324.0137 0083902  83.7184 277.3560 14.35529895883342
IRIDIUM 33 DEB          
1 34145U 97051DY  26066.64111143  .00003648  00000+0  10646-2 0  9999
2 34145  86.2084 294.6977 0052211 172.0092 188.1953 14.43078845888624
IRIDIUM 33 DEB          
1 34146U 97051DZ  26066.67029544  .00003225  00000+0  82953-3 0  9998
2 34146  86.2828 312.2809 0025610 306.7387  81.6277 14.49725342893379
IRIDIUM 33 DEB          
1 34159U 97051EN  26066.59116046  .00002089  00000+0  67108-3 0  9999
2 34159  86.3551  12.0519 0028865  13.2287 346.9662 14.38747706891799
IRIDIUM 33 DEB          
1 34350U 97051ES  26066.20343897  .00001371  00000+0  38135-3 0  9997
2 34350  86.3305 326.1713 0019409 214.8446 269.0845 14.45684669895130
IRIDIUM 33 DEB          
1 34366U 97051FJ  26066.30847134  .00007415  00000+0  17141-2 0  9996
2 34366  86.3730  12.4977 0018183 211.7670 267.9723 14.54985371894112
IRIDIUM 33 DEB          
1 34375U 97051FT  26066.22376169  .00001371  00000+0  62632-3 0  9993
2 34375  86.4349 148.6723 0101111 217.5214 196.7545 14.18174986879095
IRIDIUM 33 DEB          
1 34376U 97051FU  26066.46298905  .00012337  00000+0  23144-2 0  9999
2 34376  86.2989 328.4060 0022503 242.7080 117.1841 14.64497934892468
IRIDIUM 33 DEB          
1 34486U 97051GB  26066.19769447  .00035861  00000+0  27254-2 0  9998
2 34486  86.3937 332.8679 0009478 145.4605   6.0905 15.01962868902517
