[{"OBJECT_NAME":"IRIDIUM 33 DEB","OBJECT_ID":"1997-051BV","EPOCH":"2026-03-07T11:50:02.416992","MEAN_MOTION":14.9019187,"ECCENTRICITY":0.0002591,"INCLINATION":86.2496,"RA_OF_ASC_NODE":249.3828,"ARG_OF_PERICENTER":119.422,"MEAN_ANOMALY":296.4759,"EPHEMERIS_TYPE":0,"CLASSIFICATION_TYPE":"U","NORAD_CAT_ID":33960,"ELEMENT_SET_NO":999,"REV_AT_EPOCH":90127,"BSTAR":0.0041758176,"MEAN_MOTION_DOT":0.00040661,"MEAN_MOTION_DDOT":0},{"OBJECT_NAME":"IRIDIUM 33 DEB","OBJECT_ID":"1997-051CB","EPOCH":"2026-03-07T14:11:10.078368","MEAN_MOTION":14.50034815,"ECCENTRICITY":0.00052436,"INCLINATION":86.3971,"RA_OF_ASC_NODE":9.5982,"ARG_OF_PERICENTER":290.5725,"MEAN_ANOMALY":194.7432,"EPHEMERIS_TYPE":0,"CLASSIFICATION_TYPE":"U","NORAD_CAT_ID":33966,"ELEMENT_SET_NO":999,"REV_AT_EPOCH":89671,"BSTAR":0.00084983273,"MEAN_MOTION_DOT":3.312e-5,"MEAN_MOTION_DDOT":0},{"OBJECT_NAME":"IRIDIUM 33 DEB","OBJECT_ID":"1997-051CE","EPOCH":"2026-03-07T11:45:32.253696","MEAN_MOTION":14.49990542,"ECCENTRICITY":0.00070121,"INCLINATION":86.3497,"RA_OF_ASC_NODE":340.9934,"ARG_OF_PERICENTER":168.5956,"MEAN_ANOMALY":191.5409,"EPHEMERIS_TYPE":0,"CLASSIFICATION_TYPE":"U","NORAD_CAT_ID":34071,"ELEMENT_SET_NO":999,"REV_AT_EPOCH":89562,"BSTAR":0.00085612862,"MEAN_MOTION_DOT":3.334e-5,"MEAN_MOTION_DDOT":0},{"OBJECT_NAME":"IRIDIUM 33 DEB","OBJECT_ID":"1997-051CL","EPOCH":"2026-03-07T07:17:39.190848","MEAN_MOTION":14.66561812,"ECCENTRICITY":0.0012222,"INCLINATION":86.3891,"RA_OF_ASC_NODE":14.2,"ARG_OF_PERICENTER":92.4036,"MEAN_ANOMALY":27.6553,"EPHEMERIS_TYPE":0,"CLASSIFICATION_TYPE":"U","NORAD_CAT_ID":34077,"ELEMENT_SET_NO":999,"REV_AT_EPOCH":89571,"BSTAR":0.0023295,"MEAN_MOTION_DOT":0.0001297,"MEAN_MOTION_DDOT":0},{"OBJECT_NAME":"IRIDIUM 33 DEB","OBJECT_ID":"1997-051CN","EPOCH":"2026-03-07T04:54:45.044928","MEAN_MOTION":14.86965265,"ECCENTRICITY":0.00095262,"INCLINATION":86.3784,"RA_OF_ASC_NODE":330.1567,"ARG_OF_PERICENTER":53.2474,"MEAN_ANOMALY":69.1833,"EPHEMERIS_TYPE":0,"CLASSIFICATION_TYPE":"U","NORAD_CAT_ID":34079,"ELEMENT_SET_NO":999,"REV_AT_EPOCH":90231,"BSTAR":0.0019529662,"MEAN_MOTION_DOT":0.00017533,"MEAN_MOTION_DDOT":0},{"OBJECT_NAME":"IRIDIUM 33 DEB","OBJECT_ID":"1997-051CX","EPOCH":"2026-03-07T06:38:51.300096","MEAN_MOTION":14.97844315,"ECCENTRICITY":0.0001655,"INCLINATION":86.3863,"RA_OF_ASC_NODE":351.7021,"ARG_OF_PERICENTER":73.4198,"MEAN_ANOMALY":46.5186,"EPHEMERIS_TYPE":0,"CLASSIFICATION_TYPE":"U","NORAD_CAT_ID":34088,"ELEMENT_SET_NO":999,"REV_AT_EPOCH":90004,"BSTAR":0.0048482,"MEAN_MOTION_DOT":0.00057413,"MEAN_MOTION_DDOT":0},{"OBJECT_NAME":"IRIDIUM 33 DEB","OBJECT_ID":"1997-051DA","EPOCH":"2026-03-07T07:28:29.857152","MEAN_MOTION":14.89565735,"ECCENTRICITY":0.0032021,"INCLINATION":86.3453,"RA_OF_ASC_NODE":27.8729,"ARG_OF_PERICENTER":7.4239,"MEAN_ANOMALY":352.7454,"EPHEMERIS_TYPE":0,"CLASSIFICATION_TYPE":"U","NORAD_CAT_ID":34091,"ELEMENT_SET_NO":999,"REV_AT_EPOCH":89122,"BSTAR":0.0076697,"MEAN_MOTION_DOT":0.00074552,"MEAN_MOTION_DDOT":0},{"OBJECT_NAME":"IRIDIUM 33 DEB","OBJECT_ID":"1997-051DG","EPOCH":"2026-03-07T10:36:12.085056","MEAN_MOTION":14.35529895,"ECCENTRICITY":0.00839024,"INCLINATION":86.201,"RA_OF_ASC_NODE":324.0137,"ARG_OF_PERICENTER":83.7184,"MEAN_ANOMALY":277.356,"EPHEMERIS_TYPE":0,"CLASSIFICATION_TYPE":"U","NORAD_CAT_ID":34097,"ELEMENT_SET_NO":999,"REV_AT_EPOCH":88334,"BSTAR":0.0015768388,"MEAN_MOTION_DOT":4.742e-5,"MEAN_MOTION_DDOT":0},{"OBJECT_NAME":"IRIDIUM 33 DEB","OBJECT_ID":"1997-051DY","EPOCH":"2026-03-07T15:23:12.027552","MEAN_MOTION":14.43078845,"ECCENTRICITY":0.00522115,"INCLINATION":86.2084,"RA_OF_ASC_NODE":294.6977,"ARG_OF_PERICENTER":172.0092,"MEAN_ANOMALY":188.1953,"EPHEMERIS_TYPE":0,"CLASSIFICATION_TYPE":"U","NORAD_CAT_ID":34145,"ELEMENT_SET_NO":999,"REV_AT_EPOCH":88862,"BSTAR":0.0010645565,"MEAN_MOTION_DOT":3.648e-5,"MEAN_MOTION_DDOT":0},{"OBJECT_NAME":"IRIDIUM 33 DEB","OBJECT_ID":"1997-051DZ","EPOCH":"2026-03-07T16:05:13.526016","MEAN_MOTION":14.49725342,"ECCENTRICITY":0.00256108,"INCLINATION":86.2828,"RA_OF_ASC_NODE":312.2809,"ARG_OF_PERICENTER":306.7387,"MEAN_ANOMALY":81.6277,"EPHEMERIS_TYPE":0,"CLASSIFICATION_TYPE":"U","NORAD_CAT_ID":34146,"ELEMENT_SET_NO":999,"REV_AT_EPOCH":89337,"BSTAR":0.00082952792,"MEAN_MOTION_DOT":3.225e-5,"MEAN_MOTION_DDOT":0},{"OBJECT_NAME":"IRIDIUM 33 DEB","OBJECT_ID":"1997-051EN","EPOCH":"2026-03-07T14:11:16.263744","MEAN_MOTION":14.38747706,"ECCENTRICITY":0.00288654,"INCLINATION":86.3551,"RA_OF_ASC_NODE":12.0519,"ARG_OF_PERICENTER":13.2287,"MEAN_ANOMALY":346.9662,"EPHEMERIS_TYPE":0,"CLASSIFICATION_TYPE":"U","NORAD_CAT_ID":34159,"ELEMENT_SET_NO":999,"REV_AT_EPOCH":89179,"BSTAR":0.0006710806,"MEAN_MOTION_DOT":2.089e-5,"MEAN_MOTION_DDOT":0},{"OBJECT_NAME":"IRIDIUM 33 DEB","OBJECT_ID":"1997-051ES","EPOCH":"2026-03-07T04:52:57.127008","MEAN_MOTION":14.45684669,"ECCENTRICITY":0.00194092,"INCLINATION":86.3305,"RA_OF_ASC_NODE":326.1713,"ARG_OF_PERICENTER":214.8446,"MEAN_ANOMALY":269.0845,"EPHEMERIS_TYPE":0,"CLASSIFICATION_TYPE":"U","NORAD_CAT_ID":34350,"ELEMENT_SET_NO":999,"REV_AT_EPOCH":89513,"BSTAR":0.0003813452,"MEAN_MOTION_DOT":1.371e-5,"MEAN_MOTION_DDOT":0},{"OBJECT_NAME":"IRIDIUM 33 DEB","OBJECT_ID":"1997-051FJ","EPOCH":"2026-03-07T07:24:11.923776","MEAN_MOTION":14.54985371,"ECCENTRICITY":0.0018183,"INCLINATION":86.373,"RA_OF_ASC_NODE":12.4977,"ARG_OF_PERICENTER":211.767,"MEAN_ANOMALY":267.9723,"EPHEMERIS_TYPE":0,"CLASSIFICATION_TYPE":"U","NORAD_CAT_ID":34366,"ELEMENT_SET_NO":999,"REV_AT_EPOCH":89411,"BSTAR":0.0017141,"MEAN_MOTION_DOT":7.415e-5,"MEAN_MOTION_DDOT":0},{"OBJECT_NAME":"IRIDIUM 33 DEB","OBJECT_ID":"1997-051FT","EPOCH":"2026-03-07T05:22:13.010016","MEAN_MOTION":14.18174986,"ECCENTRICITY":0.0101111,"INCLINATION":86.4349,"RA_OF_ASC_NODE":148.6723,"ARG_OF_PERICENTER":217.5214,"MEAN_ANOMALY":196.7545,"EPHEMERIS_TYPE":0,"CLASSIFICATION_TYPE":"U","NORAD_CAT_ID":34375,"ELEMENT_SET_NO":999,"REV_AT_EPOCH":87909,"BSTAR":0.00062632,"MEAN_MOTION_DOT":1.371e-5,"MEAN_MOTION_DDOT":0},{"OBJECT_NAME":"IRIDIUM 33 DEB","OBJECT_ID":"1997-051FU","EPOCH":"2026-03-07T11:06:42.253920","MEAN_MOTION":14.64497934,"ECCENTRICITY":0.00225038,"INCLINATION":86.2989,"RA_OF_ASC_NODE":328.406,"ARG_OF_PERICENTER":242.708,"MEAN_ANOMALY":117.1841,"EPHEMERIS_TYPE":0,"CLASSIFICATION_TYPE":"U","NORAD_CAT_ID":34376,"ELEMENT_SET_NO":999,"REV_AT_EPOCH":89246,"BSTAR":0.0023143989,"MEAN_MOTION_DOT":0.00012337,"MEAN_MOTION_DDOT":0},{"OBJECT_NAME":"IRIDIUM 33 DEB","OBJECT_ID":"1997-051GB","EPOCH":"2026-03-07T04:44:40.802208","MEAN_MOTION":15.01962868,"ECCENTRICITY":0.00094788,"INCLINATION":86.3937,"RA_OF_ASC_NODE":332.8679,"ARG_OF_PERICENTER":145.4605,"MEAN_ANOMALY":6.0905,"EPHEMERIS_TYPE":0,"CLASSIFICATION_TYPE":"U","NORAD_CAT_ID":34486,"ELEMENT_SET_NO":999,"REV_AT_EPOCH":90251,"BSTAR":0.002725436,"MEAN_MOTION_DOT":0.00035861,"MEAN_MOTION_DDOT":0}]
